NORAD_CAT_ID,OBJECT_NAME,OBJECT_TYPE,EPOCH,MEAN_MOTION,ECCENTRICITY,INCLINATION,RA_OF_ASC_NODE,ARG_OF_PERICENTER,MEAN_ANOMALY,BSTAR,MEAN_MOTION_DOT,MEAN_MOTION_DDOT,TLE_LINE0,TLE_LINE1,TLE_LINE2,SEMIMAJOR_AXIS,PERIOD,APOGEE,PERIGEE,DECAYED
56782.0,STARLINK-6352,PAYLOAD,2024-06-27 21:54:14,14.9833033,0.0002849,69.9999,87.2675,268.5534,91.5299,-6.3746e-05,-8.53e-06,0.0,0 STARLINK-6352,1 56782U 23078R   24179.91266935 -.00000853  00000-0 -63746-4 0  9990,2 56782  69.9999  87.2675 0002849 268.5534  91.5299 14.98330330 60333,6950.192,96.107,574.037,570.077,0.0
56782.0,STARLINK-6352,PAYLOAD,2024-06-28 02:42:38,14.98334893,0.0002712,70.0001,86.7626,267.746,92.3389,-1.2805e-05,-2.46e-06,0.0,0 STARLINK-6352,1 56782U 23078R   24180.11294482 -.00000246  00000-0 -12805-4 0  9998,2 56782  70.0001  86.7626 0002712 267.7460  92.3389 14.98334893 60627,6950.178,96.107,573.928,570.158,0.0
56782.0,STARLINK-6352,PAYLOAD,2024-06-28 10:43:18,14.98340344,0.0002765,70.0002,85.9209,268.0175,92.0668,-4.0079e-05,-5.71e-06,0.0,0 STARLINK-6352,1 56782U 23078R   24180.44674071 -.00000571  00000-0 -40079-4 0  9995,2 56782  70.0002  85.9209 0002765 268.0175  92.0668 14.98340344 60413,6950.161,96.106,573.948,570.104,0.0
56782.0,STARLINK-6352,PAYLOAD,2024-06-28 21:56:14,14.98338733,0.000266,70.0001,84.7423,266.7032,93.3823,0.00011352,1.262e-05,0.0,0 STARLINK-6352,1 56782U 23078R   24180.91405597  .00001262  00000-0  11352-3 0  9999,2 56782  70.0001  84.7423 0002660 266.7032  93.3823 14.98338733 60481,6950.166,96.106,573.88,570.182,0.0
56782.0,STARLINK-6352,PAYLOAD,2024-06-29 04:20:45,14.98347862,0.0002536,70.0002,84.069,264.5709,95.5161,0.00020836,2.395e-05,0.0,0 STARLINK-6352,1 56782U 23078R   24181.18108519  .00002395  00000-0  20836-3 0  9998,2 56782  70.0002  84.0690 0002536 264.5709  95.5161 14.98347862 60785,6950.138,96.106,573.765,570.24,0.0
56782.0,STARLINK-6352,PAYLOAD,2024-06-29 10:45:21,14.98312344,6.58e-05,70.0002,83.3946,6.0906,354.0261,-0.00018649,-2.316e-05,0.0,0 STARLINK-6352,1 56782U 23078R   24181.44816854 -.00002316  00000-0 -18649-3 0  9999,2 56782  70.0002  83.3946 0000658   6.0906 354.0261 14.98312344 60828,6950.247,96.108,572.57,571.655,0.0
56782.0,STARLINK-6352,PAYLOAD,2024-06-29 23:34:26,14.98306633,0.0002908,70.0,82.0499,268.5452,91.5373,-0.00026589,-3.262e-05,0.0,0 STARLINK-6352,1 56782U 23078R   24181.98224847 -.00003262  00000-0 -26589-3 0  9996,2 56782  70.0000  82.0499 0002908 268.5452  91.5373 14.98306633 60647,6950.265,96.108,574.151,570.109,0.0
56782.0,STARLINK-6352,PAYLOAD,2024-06-30 10:47:22,14.98317695,0.0002984,69.9997,80.8712,269.0703,91.0114,-0.00016247,-2.03e-05,0.0,0 STARLINK-6352,1 56782U 23078R   24182.44956356 -.00002030  00000-0 -16247-3 0  9997,2 56782  69.9997  80.8712 0002984 269.0703  91.0114 14.98317695 60976,6950.231,96.108,574.17,570.022,0.0
56782.0,STARLINK-6352,PAYLOAD,2024-06-30 20:24:10,14.9832604,0.0002992,69.9998,79.8614,268.7219,91.3598,-0.00013444,-1.697e-05,0.0,0 STARLINK-6352,1 56782U 23078R   24182.85011952 -.00001697  00000-0 -13444-3 0  9990,2 56782  69.9998  79.8614 0002992 268.7219  91.3598 14.98326040 61034,6950.205,96.107,574.15,569.991,0.0
56782.0,STARLINK-6352,PAYLOAD,2024-06-30 22:00:18,14.98326307,0.0003,69.9998,79.6932,269.0352,91.0464,-0.00012773,-1.617e-05,0.0,0 STARLINK-6352,1 56782U 23078R   24182.91687944 -.00001617  00000-0 -12773-3 0  9993,2 56782  69.9998  79.6932 0003000 269.0352  91.0464 14.98326307 60784,6950.204,96.107,574.154,569.984,0.0
56782.0,STARLINK-6352,PAYLOAD,2024-07-01 02:48:41,14.98336081,0.0003114,69.9994,79.1876,269.6873,90.3929,-9.4407e-05,-1.219e-05,0.0,0 STARLINK-6352,1 56782U 23078R   24183.11715221 -.00001219  00000-0 -94407-4 0  9999,2 56782  69.9994  79.1876 0003114 269.6873  90.3929 14.98336081 61073,6950.174,96.107,574.203,569.875,0.0
56782.0,STARLINK-6352,PAYLOAD,2024-07-01 10:49:21,14.98342769,0.0003179,69.9993,78.3458,269.2524,90.8271,-7.1154e-05,-9.42e-06,0.0,0 STARLINK-6352,1 56782U 23078R   24183.45094628 -.00000942  00000-0 -71154-4 0  9993,2 56782  69.9993  78.3458 0003179 269.2524  90.8271 14.98342769 60860,6950.153,96.106,574.228,569.809,0.0
56782.0,STARLINK-6352,PAYLOAD,2024-07-01 22:02:18,14.9832507,0.000335,69.9994,77.1672,269.5259,90.5516,0.00042314,4.959e-05,0.0,0 STARLINK-6352,1 56782U 23078R   24183.91826527  .00004959  00000-0  42314-3 0  9990,2 56782  69.9994  77.1672 0003350 269.5259  90.5516 14.98325070 60938,6950.208,96.107,574.401,569.745,0.0
56782.0,STARLINK-6352,PAYLOAD,2024-07-02 02:50:41,14.98335123,0.000333,69.9994,76.6619,269.0077,91.07,0.00041384,4.849e-05,0.0,0 STARLINK-6352,1 56782U 23078R   24184.11853894  .00004849  00000-0  41384-3 0  9994,2 56782  69.9994  76.6619 0003330 269.0077  91.0700 14.98335123 61228,6950.177,96.107,574.356,569.728,0.0
56782.0,STARLINK-6352,PAYLOAD,2024-07-02 20:28:11,14.98330905,0.0003297,69.9994,74.8103,270.1354,89.9427,5.7392e-05,5.92e-06,0.0,0 STARLINK-6352,1 56782U 23078R   24184.85291079  .00000592  00000-0  57392-4 0  9994,2 56782  69.9994  74.8103 0003297 270.1354  89.9427 14.98330905 61336,6950.19,96.107,574.347,569.764,0.0
56782.0,STARLINK-6352,PAYLOAD,2024-07-02 22:04:19,14.98331487,0.0003217,69.9995,74.6414,271.0831,88.9959,4.544e-05,4.49e-06,0.0,0 STARLINK-6352,1 56782U 23078R   24184.91967073  .00000449  00000-0  45440-4 0  9997,2 56782  69.9995  74.6414 0003217 271.0831  88.9959 14.98331487 61089,6950.188,96.107,574.289,569.817,0.0
56782.0,STARLINK-6352,PAYLOAD,2024-07-03 02:52:43,14.98339328,0.0003273,69.9993,74.1371,268.2102,91.8682,5.7838e-05,5.97e-06,0.0,0 STARLINK-6352,1 56782U 23078R   24185.11994405  .00000597  00000-0  57838-4 0  9997,2 56782  69.9993  74.1371 0003273 268.2102  91.8682 14.98339328 61375,6950.164,96.106,574.304,569.754,0.0
56782.0,STARLINK-6352,PAYLOAD,2024-07-03 20:30:12,14.98336788,0.0003111,69.9999,72.2857,269.0375,91.0427,-0.00011096,-1.417e-05,0.0,0 STARLINK-6352,1 56782U 23078R   24185.85430672 -.00001417  00000-0 -11096-3 0  9998,2 56782  69.9999  72.2857 0003111 269.0375  91.0427 14.98336788 61489,6950.172,96.107,574.199,569.875,0.0
56782.0,STARLINK-6352,PAYLOAD,2024-07-03 22:06:19,14.98341924,0.0003244,70.0,72.1175,269.6746,90.4042,-0.00019455,-2.414e-05,0.0,0 STARLINK-6352,1 56782U 23078R   24185.92106448 -.00002414  00000-0 -19455-3 0  9992,2 56782  70.0000  72.1175 0003244 269.6746  90.4042 14.98341924 61239,6950.156,96.106,574.276,569.766,0.0
56782.0,STARLINK-6352,PAYLOAD,2024-07-04 09:19:16,14.98343551,0.0002993,70.0004,70.9382,271.5555,88.5261,-0.00021208,-2.623e-05,0.0,0 STARLINK-6352,1 56782U 23078R   24186.38838143 -.00002623  00000-0 -21208-3 0  9998,2 56782  70.0004  70.9382 0002993 271.5555  88.5261 14.98343551 61306,6950.151,96.106,574.096,569.936,0.0
56782.0,STARLINK-6352,PAYLOAD,2024-07-04 20:32:13,14.98292741,0.0002804,70.0002,69.7608,263.1298,96.9542,0.00061689,7.268e-05,0.0,0 STARLINK-6352,1 56782U 23078R   24186.85570841  .00007268  00000-0  61689-3 0  9993,2 56782  70.0002  69.7608 0002804 263.1298  96.9542 14.98292741 61638,6950.308,96.109,574.122,570.224,0.0
56782.0,STARLINK-6352,PAYLOAD,2024-07-04 22:08:20,14.98331028,0.0002891,70.0001,69.5927,265.3849,94.698,-7.4928e-07,-1.02e-06,0.0,0 STARLINK-6352,1 56782U 23078R   24186.92246309 -.00000102  00000-0 -74928-6 0  9995,2 56782  70.0001  69.5927 0002891 265.3849  94.6980 14.98331028 61386,6950.19,96.107,574.064,570.045,0.0
56782.0,STARLINK-6352,PAYLOAD,2024-07-05 02:56:45,14.98310221,0.0002927,70.0001,69.0876,260.5008,99.582,0.00040517,4.742e-05,0.0,0 STARLINK-6352,1 56782U 23078R   24187.12274642  .00004742  00000-0  40517-3 0  9995,2 56782  70.0001  69.0876 0002927 260.5008  99.5820 14.98310221 61679,6950.254,96.108,574.153,570.085,0.0
56782.0,STARLINK-6352,PAYLOAD,2024-07-05 20:34:14,14.98326848,0.0002819,70.0002,67.236,264.7988,95.2849,-3.5198e-05,-5.13e-06,0.0,0 STARLINK-6352,1 56782U 23078R   24187.85710662 -.00000513  00000-0 -35198-4 0  9996,2 56782  70.0002  67.2360 0002819 264.7988  95.2849 14.98326848 61789,6950.203,96.107,574.027,570.108,0.0
56782.0,STARLINK-6352,PAYLOAD,2024-07-05 22:10:22,14.98326312,0.0002834,70.0001,67.0675,265.1894,94.8942,-4.0725e-05,-5.79e-06,0.0,0 STARLINK-6352,1 56782U 23078R   24187.92386725 -.00000579  00000-0 -40725-4 0  9997,2 56782  70.0001  67.0675 0002834 265.1894  94.8942 14.98326312 61531,6950.204,96.107,574.039,570.1,0.0
56782.0,STARLINK-6352,PAYLOAD,2024-07-06 09:23:17,14.98345636,0.0003091,69.9998,65.8895,259.2722,100.8089,-0.00031208,-3.816e-05,0.0,0 STARLINK-6352,1 56782U 23078R   24188.39118007 -.00003816  00000-0 -31208-3 0  9997,2 56782  69.9998  65.8895 0003091 259.2722 100.8089 14.98345636 61869,6950.145,96.106,574.158,569.861,0.0
56782.0,STARLINK-6352,PAYLOAD,2024-07-06 20:36:14,14.98325898,0.0003094,69.9995,64.7113,270.0452,90.0353,2.509e-06,-6.3e-07,0.0,0 STARLINK-6352,1 56782U 23078R   24188.85850683 -.00000063  00000-0  25090-5 0  9995,2 56782  69.9995  64.7113 0003094 270.0452  90.0353 14.98325898 61931,6950.206,96.107,574.221,569.92,0.0
56782.0,STARLINK-6352,PAYLOAD,2024-07-06 22:12:22,14.98329175,0.0003089,69.9993,64.5423,268.4257,91.6548,5.1784e-06,-3.1e-07,0.0,0 STARLINK-6352,1 56782U 23078R   24188.92526459 -.00000031  00000-0  51784-5 0  9998,2 56782  69.9993  64.5423 0003089 268.4257  91.6548 14.98329175 61686,6950.195,96.107,574.207,569.914,0.0
56782.0,STARLINK-6352,PAYLOAD,2024-07-07 09:25:19,14.98333336,0.0003067,69.9995,63.3645,270.9228,89.158,-3.7044e-05,-5.35e-06,0.0,0 STARLINK-6352,1 56782U 23078R   24189.39258275 -.00000535  00000-0 -37044-4 0  9990,2 56782  69.9995  63.3645 0003067 270.9228  89.1580 14.98333336 62013,6950.183,96.107,574.179,569.916,0.0
56782.0,STARLINK-6352,PAYLOAD,2024-07-07 22:14:23,14.98330947,0.0003078,69.9995,62.0178,271.4582,88.6224,3.8974e-05,3.72e-06,0.0,0 STARLINK-6352,1 56782U 23078R   24189.92666265  .00000372  00000-0  38974-4 0  9991,2 56782  69.9995  62.0178 0003078 271.4582  88.6224 14.98330947 61834,6950.19,96.107,574.194,569.916,0.0
